{
  "type": "FeatureCollection",
  "features": [
    {
      "type": "Feature",
      "properties": {
        "norad_id": 66909,
        "name": "SILVERSAT",
        "group": "stations",
        "lat": 32.42304640720159,
        "lon": -133.52466162807093,
        "alt_km": 405.09032715620015,
        "timestamp": "2025-12-25T22:42:15.744406+00:00",
        "meta_object_name": "SILVERSAT",
        "meta_object_id": "1998-067XV",
        "meta_epoch": "2025-12-24T12:08:54.950784",
        "meta_mean_motion": 15.53202951,
        "meta_eccentricity": 0.00038249,
        "meta_inclination": 51.631,
        "meta_ra_of_asc_node": 83.8633,
        "meta_arg_of_pericenter": 300.8028,
        "meta_mean_anomaly": 59.2585,
        "meta_ephemeris_type": 0,
        "meta_classification_type": "U",
        "meta_norad_cat_id": 66909,
        "meta_element_set_no": 999,
        "meta_rev_at_epoch": 344,
        "meta_bstar": 0.0011617624,
        "meta_mean_motion_dot": 0.00074602,
        "meta_mean_motion_ddot": 0,
        "tle_line1": "1 66909U 98067XV  25358.50619156  .00074602  00000+0  11618-2 0  9993",
        "tle_line2": "2 66909  51.6310  83.8633 0003824 300.8028  59.2585 15.53202951  3445"
      },
      "geometry": {
        "type": "Point",
        "coordinates": [
          -133.52466162807093,
          32.42304640720159
        ]
      }
    },
    {
      "type": "Feature",
      "properties": {
        "norad_id": 66910,
        "name": "1998-067XW",
        "group": "stations",
        "lat": 26.102316670358178,
        "lon": -126.16805307886158,
        "alt_km": 405.6977336183918,
        "timestamp": "2025-12-25T22:42:15.744419+00:00",
        "meta_object_name": "1998-067XW",
        "meta_object_id": "1998-067XW",
        "meta_epoch": "2025-12-25T05:05:39.017760",
        "meta_mean_motion": 15.53228928,
        "meta_eccentricity": 0.0003837,
        "meta_inclination": 51.6308,
        "meta_ra_of_asc_node": 80.3284,
        "meta_arg_of_pericenter": 278.3824,
        "meta_mean_anomaly": 81.6731,
        "meta_ephemeris_type": 0,
        "meta_classification_type": "U",
        "meta_norad_cat_id": 66910,
        "meta_element_set_no": 999,
        "meta_rev_at_epoch": 355,
        "meta_bstar": 0.0010169,
        "meta_mean_motion_dot": 0.00065225,
        "meta_mean_motion_ddot": 0,
        "tle_line1": "1 66910U 98067XW  25359.21225715  .00065225  00000+0  10169-2 0  9999",
        "tle_line2": "2 66910  51.6308  80.3284 0003837 278.3824  81.6731 15.53228928  3551"
      },
      "geometry": {
        "type": "Point",
        "coordinates": [
          -126.16805307886158,
          26.102316670358178
        ]
      }
    },
    {
      "type": "Feature",
      "properties": {
        "norad_id": 66911,
        "name": "1998-067XX",
        "group": "stations",
        "lat": 8.708675297595192,
        "lon": -110.34509037466306,
        "alt_km": 406.15175586021087,
        "timestamp": "2025-12-25T22:42:15.744430+00:00",
        "meta_object_name": "1998-067XX",
        "meta_object_id": "1998-067XX",
        "meta_epoch": "2025-12-25T14:15:47.536416",
        "meta_mean_motion": 15.53814599,
        "meta_eccentricity": 0.000352,
        "meta_inclination": 51.6302,
        "meta_ra_of_asc_node": 78.3793,
        "meta_arg_of_pericenter": 286.8967,
        "meta_mean_anomaly": 73.1637,
        "meta_ephemeris_type": 0,
        "meta_classification_type": "U",
        "meta_norad_cat_id": 66911,
        "meta_element_set_no": 999,
        "meta_rev_at_epoch": 360,
        "meta_bstar": 0.0011507,
        "meta_mean_motion_dot": 0.00075561,
        "meta_mean_motion_ddot": 0,
        "tle_line1": "1 66911U 98067XX  25359.59430019  .00075561  00000+0  11507-2 0  9997",
        "tle_line2": "2 66911  51.6302  78.3793 0003520 286.8967  73.1637 15.53814599  3601"
      },
      "geometry": {
        "type": "Point",
        "coordinates": [
          -110.34509037466306,
          8.708675297595192
        ]
      }
    },
    {
      "type": "Feature",
      "properties": {
        "norad_id": 66912,
        "name": "1998-067XY",
        "group": "stations",
        "lat": 51.55005222602739,
        "lon": 170.59340704321178,
        "alt_km": 404.89080639554504,
        "timestamp": "2025-12-25T22:42:15.744440+00:00",
        "meta_object_name": "1998-067XY",
        "meta_object_id": "1998-067XY",
        "meta_epoch": "2025-12-25T14:35:00.692160",
        "meta_mean_motion": 15.52392127,
        "meta_eccentricity": 0.0003813,
        "meta_inclination": 51.6317,
        "meta_ra_of_asc_node": 78.4687,
        "meta_arg_of_pericenter": 296.0372,
        "meta_mean_anomaly": 64.0225,
        "meta_ephemeris_type": 0,
        "meta_classification_type": "U",
        "meta_norad_cat_id": 66912,
        "meta_element_set_no": 999,
        "meta_rev_at_epoch": 360,
        "meta_bstar": 0.0008056,
        "meta_mean_motion_dot": 0.00049931,
        "meta_mean_motion_ddot": 0,
        "tle_line1": "1 66912U 98067XY  25359.60764690  .00049931  00000+0  80560-3 0  9993",
        "tle_line2": "2 66912  51.6317  78.4687 0003813 296.0372  64.0225 15.52392127  3608"
      },
      "geometry": {
        "type": "Point",
        "coordinates": [
          170.59340704321178,
          51.55005222602739
        ]
      }
    }
  ]
}